MALLIGYONG-1            
1 58400U 23179A   24190.56019442  .00006084  00000+0  27459-3 0  9993
2 58400  97.4010  77.0466 0003662 107.5383 252.6253 15.21347387 34973
